ONEWEB-0377             
1 49303U 21090AA  23261.83602050  .00000073  00000+0  14800-3 0  9994
2 49303  87.9164 114.0132 0001797  74.6250 285.5082 13.20770704 98206
ONEWEB-0378             
1 49304U 21090AB  23261.87494003  .00000039  00000+0  64151-4 0  9993
2 49304  87.9179 114.0009 0001610  92.9186 267.2131 13.20770749 97470
ONEWEB-0379             
1 49305U 21090AC  23261.86977773  .00000187  00000+0  47049-3 0  9993
2 49305  87.8991 129.2382 0001791  83.1690 276.9643 13.14500507 95880
ONEWEB-0380             
1 49306U 21090AD  23261.65966066  .00000008  00000+0 -12255-4 0  9999
2 49306  87.9252 144.4979 0001720  71.8113 288.3207 13.19725465 94192
ONEWEB-0381             
1 49307U 21090AE  23261.89703550 -.00000019  00000+0 -78520-4 0  9993
2 49307  87.9226 113.9438 0001645  79.4925 280.6394 13.20769920 97524
ONEWEB-0382             
1 49308U 21090AF  23261.88438942 -.00000313  00000+0 -80294-3 0  9990
2 49308  87.9166 114.0019 0001703 100.8882 259.2443 13.20771324 97518
ONEWEB-0383             
1 49309U 21090AG  23261.86343815  .00000204  00000+0  51505-3 0  9993
2 49309  87.9000 129.2218 0001721  87.4169 272.7157 13.14504886 95917
ONEWEB-0384             
1 49310U 21090AH  23261.88020104  .00000053  00000+0  99364-4 0  9998
2 49310  87.9179 113.9999 0001281 102.5670 257.5606 13.20770636 97523
